{
  "norad_id": 41786,
  "name": "ALSAT-2B",
  "history": [
    {
      "epoch": "2026-03-28T22:26:27.581280Z",
      "apogee_km": 660.1490232206052,
      "perigee_km": 657.1382662539481,
      "latitude_deg": 4.145101877331712e-05,
      "longitude_deg": -11.234682640414103,
      "height_km": 661.844489922607,
      "semi_major_axis_km": 7036.780644737277,
      "eccentricity": 0.00021393,
      "inclination_deg": 97.9977,
      "raan_deg": 151.7286,
      "arg_perigee_deg": 97.57,
      "mean_anomaly_deg": 262.575,
      "mean_motion_rev_day": 14.70759771
    },
    {
      "epoch": "2026-03-29T04:58:19.729920Z",
      "apogee_km": 660.126970676577,
      "perigee_km": 657.1518216162867,
      "latitude_deg": 5.96482761789205e-06,
      "longitude_deg": -109.20298849969241,
      "height_km": 661.8268408100289,
      "semi_major_axis_km": 7036.776396146432,
      "eccentricity": 0.0002114,
      "inclination_deg": 97.9977,
      "raan_deg": 151.9958,
      "arg_perigee_deg": 97.1389,
      "mean_anomaly_deg": 263.0058,
      "mean_motion_rev_day": 14.70761103
    },
    {
      "epoch": "2026-03-30T03:49:52.252320Z",
      "apogee_km": 660.1144820394175,
      "perigee_km": 657.140745313678,
      "latitude_deg": -1.843905943634646e-05,
      "longitude_deg": -92.09268167019994,
      "height_km": 661.7963100043536,
      "semi_major_axis_km": 7036.764613676548,
      "eccentricity": 0.0002113,
      "inclination_deg": 97.9976,
      "raan_deg": 152.9304,
      "arg_perigee_deg": 96.4146,
      "mean_anomaly_deg": 263.7301,
      "mean_motion_rev_day": 14.70764797
    },
    {
      "epoch": "2026-03-30T07:05:48.333984Z",
      "apogee_km": 660.1114246902907,
      "perigee_km": 657.1434581841822,
      "latitude_deg": 7.653199501883652e-06,
      "longitude_deg": -141.0769712918907,
      "height_km": 661.7840041778238,
      "semi_major_axis_km": 7036.764441437236,
      "eccentricity": 0.00021089,
      "inclination_deg": 97.9976,
      "raan_deg": 153.0639,
      "arg_perigee_deg": 95.956,
      "mean_anomaly_deg": 264.1887,
      "mean_motion_rev_day": 14.70764851
    },
    {
      "epoch": "2026-03-30T15:15:38.476800Z",
      "apogee_km": 660.1236143459219,
      "perigee_km": 657.1213105536726,
      "latitude_deg": -2.1144787696922e-06,
      "longitude_deg": 96.46272143389005,
      "height_km": 661.7605388847305,
      "semi_major_axis_km": 7036.759462449797,
      "eccentricity": 0.00021333,
      "inclination_deg": 97.9976,
      "raan_deg": 153.3978,
      "arg_perigee_deg": 95.1806,
      "mean_anomaly_deg": 264.9644,
      "mean_motion_rev_day": 14.70766412
    },
    {
      "epoch": "2026-03-30T21:47:30.692832Z",
      "apogee_km": 660.1338697525553,
      "perigee_km": 657.1177724721692,
      "latitude_deg": 7.709921577942174e-05,
      "longitude_deg": -1.5060817877795871,
      "height_km": 661.7583385379852,
      "semi_major_axis_km": 7036.762821112362,
      "eccentricity": 0.00021431,
      "inclination_deg": 97.9976,
      "raan_deg": 153.6648,
      "arg_perigee_deg": 94.9461,
      "mean_anomaly_deg": 265.1991,
      "mean_motion_rev_day": 14.70765359
    },
    {
      "epoch": "2026-03-31T20:39:03.113280Z",
      "apogee_km": 660.1415443030837,
      "perigee_km": 657.1016645859636,
      "latitude_deg": 5.6148224646896956e-05,
      "longitude_deg": 15.604951249542305,
      "height_km": 661.7330329587894,
      "semi_major_axis_km": 7036.758604444523,
      "eccentricity": 0.000216,
      "inclination_deg": 97.9973,
      "raan_deg": 154.5997,
      "arg_perigee_deg": 94.1108,
      "mean_anomaly_deg": 266.0346,
      "mean_motion_rev_day": 14.70766681
    },
    {
      "epoch": "2026-04-01T21:08:33.400032Z",
      "apogee_km": 660.1414958396854,
      "perigee_km": 657.0847315902865,
      "latitude_deg": -8.95364182137549e-06,
      "longitude_deg": 8.22452654819761,
      "height_km": 661.6969310855641,
      "semi_major_axis_km": 7036.750113714986,
      "eccentricity": 0.0002172,
      "inclination_deg": 97.9972,
      "raan_deg": 155.6013,
      "arg_perigee_deg": 93.0515,
      "mean_anomaly_deg": 267.094,
      "mean_motion_rev_day": 14.70769343
    },
    {
      "epoch": "2026-04-02T20:00:05.576832Z",
      "apogee_km": 660.1467869778435,
      "perigee_km": 657.0689147800686,
      "latitude_deg": 5.3788612318205335e-06,
      "longitude_deg": 25.336372048757045,
      "height_km": 661.6736243299036,
      "semi_major_axis_km": 7036.744850878956,
      "eccentricity": 0.0002187,
      "inclination_deg": 97.9969,
      "raan_deg": 156.536,
      "arg_perigee_deg": 92.3589,
      "mean_anomaly_deg": 267.7868,
      "mean_motion_rev_day": 14.70770993
    },
    {
      "epoch": "2026-04-02T23:16:01.604928Z",
      "apogee_km": 660.14944636979,
      "perigee_km": 657.0676332931653,
      "latitude_deg": 7.6447951097181e-05,
      "longitude_deg": -23.647600108096118,
      "height_km": 661.6794743120138,
      "semi_major_axis_km": 7036.745539831477,
      "eccentricity": 0.00021898,
      "inclination_deg": 97.9968,
      "raan_deg": 156.6696,
      "arg_perigee_deg": 92.5484,
      "mean_anomaly_deg": 267.5974,
      "mean_motion_rev_day": 14.70770777
    },
    {
      "epoch": "2026-04-03T20:29:35.594016Z",
      "apogee_km": 660.1280200727997,
      "perigee_km": 657.0712616760029,
      "latitude_deg": -3.400587946486286e-05,
      "longitude_deg": 17.95696879859957,
      "height_km": 661.6444198814862,
      "semi_major_axis_km": 7036.736640874401,
      "eccentricity": 0.0002172,
      "inclination_deg": 97.9965,
      "raan_deg": 157.5375,
      "arg_perigee_deg": 91.5861,
      "mean_anomaly_deg": 268.5594,
      "mean_motion_rev_day": 14.70773567
    },
    {
      "epoch": "2026-04-04T06:17:23.503776Z",
      "apogee_km": 660.1190393052993,
      "perigee_km": 657.0673501544488,
      "latitude_deg": 1.8689508690984697e-06,
      "longitude_deg": -128.99429424808744,
      "height_km": 661.6232421220551,
      "semi_major_axis_km": 7036.730194729874,
      "eccentricity": 0.00021684,
      "inclination_deg": 97.9963,
      "raan_deg": 157.9382,
      "arg_perigee_deg": 91.0352,
      "mean_anomaly_deg": 269.1103,
      "mean_motion_rev_day": 14.70775588
    },
    {
      "epoch": "2026-04-05T14:56:42.963072Z",
      "apogee_km": 660.1045756766471,
      "perigee_km": 657.0372746920593,
      "latitude_deg": -2.4751328629494572e-05,
      "longitude_deg": 101.16891741035379,
      "height_km": 661.5471944364567,
      "semi_major_axis_km": 7036.707925184353,
      "eccentricity": 0.00021795,
      "inclination_deg": 97.9957,
      "raan_deg": 159.2736,
      "arg_perigee_deg": 89.0207,
      "mean_anomaly_deg": 271.1249,
      "mean_motion_rev_day": 14.7078257
    },
    {
      "epoch": "2026-04-05T19:50:36.950784Z",
      "apogee_km": 660.0976884883976,
      "perigee_km": 657.0521995590234,
      "latitude_deg": -4.378326662720042e-05,
      "longitude_deg": 27.692803642016713,
      "height_km": 661.542262690502,
      "semi_major_axis_km": 7036.71194402371,
      "eccentricity": 0.0002164,
      "inclination_deg": 97.9957,
      "raan_deg": 159.4736,
      "arg_perigee_deg": 88.6758,
      "mean_anomaly_deg": 271.4696,
      "mean_motion_rev_day": 14.7078131
    },
    {
      "epoch": "2026-04-06T05:38:24.781056Z",
      "apogee_km": 660.0989696741635,
      "perigee_km": 657.0495404846615,
      "latitude_deg": 1.9654033394093848e-05,
      "longitude_deg": -119.25813178117575,
      "height_km": 661.5539760604843,
      "semi_major_axis_km": 7036.711255079412,
      "eccentricity": 0.00021668,
      "inclination_deg": 97.9955,
      "raan_deg": 159.8743,
      "arg_perigee_deg": 89.1439,
      "mean_anomaly_deg": 271.0016,
      "mean_motion_rev_day": 14.70781526
    },
    {
      "epoch": "2026-04-07T20:49:36.039072Z",
      "apogee_km": 660.1158927414463,
      "perigee_km": 657.0253707495831,
      "latitude_deg": 2.9427698008275706e-05,
      "longitude_deg": 12.937823260854847,
      "height_km": 661.480257033502,
      "semi_major_axis_km": 7036.707631745514,
      "eccentricity": 0.0002196,
      "inclination_deg": 97.9952,
      "raan_deg": 161.4765,
      "arg_perigee_deg": 86.5561,
      "mean_anomaly_deg": 273.5897,
      "mean_motion_rev_day": 14.70782662
    },
    {
      "epoch": "2026-04-08T14:47:13.471296Z",
      "apogee_km": 660.0939734939211,
      "perigee_km": 657.0249886906568,
      "latitude_deg": 5.39218555782087e-05,
      "longitude_deg": 103.5285426193776,
      "height_km": 661.4291032141971,
      "semi_major_axis_km": 7036.696481092288,
      "eccentricity": 0.00021807,
      "inclination_deg": 97.9951,
      "raan_deg": 162.2108,
      "arg_perigee_deg": 85.033,
      "mean_anomaly_deg": 275.1126,
      "mean_motion_rev_day": 14.70786158
    },
    {
      "epoch": "2026-04-09T20:10:36.717600Z",
      "apogee_km": 660.0886021982478,
      "perigee_km": 657.0360820236392,
      "latitude_deg": -8.037390313183995e-05,
      "longitude_deg": 22.67650233606033,
      "height_km": 661.4123180182422,
      "semi_major_axis_km": 7036.699342110943,
      "eccentricity": 0.0002169,
      "inclination_deg": 97.995,
      "raan_deg": 163.4126,
      "arg_perigee_deg": 84.2637,
      "mean_anomaly_deg": 275.8816,
      "mean_motion_rev_day": 14.70785261
    },
    {
      "epoch": "2026-04-10T12:30:16.193664Z",
      "apogee_km": 660.0853513508082,
      "perigee_km": 657.0328325861119,
      "latitude_deg": 3.022057638814375e-05,
      "longitude_deg": 137.75924955133945,
      "height_km": 661.4025703317213,
      "semi_major_axis_km": 7036.69609196846,
      "eccentricity": 0.0002169,
      "inclination_deg": 97.9951,
      "raan_deg": 164.0804,
      "arg_perigee_deg": 84.0192,
      "mean_anomaly_deg": 276.1262,
      "mean_motion_rev_day": 14.7078628
    },
    {
      "epoch": "2026-04-11T21:09:35.067168Z",
      "apogee_km": 660.0731761028519,
      "perigee_km": 657.0291048132904,
      "latitude_deg": 3.1727991985967297e-05,
      "longitude_deg": 7.924704064792903,
      "height_km": 661.3310860119227,
      "semi_major_axis_km": 7036.688140458071,
      "eccentricity": 0.0002163,
      "inclination_deg": 97.9951,
      "raan_deg": 165.4156,
      "arg_perigee_deg": 81.5909,
      "mean_anomaly_deg": 278.5543,
      "mean_motion_rev_day": 14.70788773
    },
    {
      "epoch": "2026-04-13T07:26:51.785376Z",
      "apogee_km": 660.0364362969731,
      "perigee_km": 657.0648431067275,
      "latitude_deg": 5.349633594220364e-06,
      "longitude_deg": -146.40110915178582,
      "height_km": 661.3017799608045,
      "semi_major_axis_km": 7036.6876397018505,
      "eccentricity": 0.00021115,
      "inclination_deg": 97.995,
      "raan_deg": 166.8176,
      "arg_perigee_deg": 80.2549,
      "mean_anomaly_deg": 279.8896,
      "mean_motion_rev_day": 14.7078893
    }
  ]
}